{
  "norad_id": 65091,
  "name": "STARLINK-34648",
  "history": [
    {
      "epoch": "2026-03-28T20:53:34.810656",
      "apogee_km": 475.6784820111134,
      "perigee_km": 474.73834008762515,
      "latitude_deg": 42.50977417707217,
      "longitude_deg": 52.67201184015721,
      "semi_major_axis_km": 6853.345411049369,
      "eccentricity": 6.859e-05,
      "inclination_deg": 53.1575,
      "raan_deg": 297.7687,
      "arg_perigee_deg": 66.1486,
      "mean_anomaly_deg": 293.9586,
      "mean_motion_rev_day": 15.3020223
    }
  ]
}