{"fetched_at":"2026-03-30T13:17:50Z","count":15418,"tles":[{"name":"STARLINK-34648","line1":"1 65091U 25167P   26087.87054179  .00011523  00000+0  40053-3 0  9992","line2":"2 65091  53.1575 297.7687 0000685  66.1486 293.9586 15.30202230 36419","category":"Starlink"}]}